[{"OBJECT_NAME":"STARLINK-32568","OBJECT_ID":"2024-222Q","EPOCH":"2026-03-09T12:52:12.874368","MEAN_MOTION":15.27570226,"ECCENTRICITY":0.00012064,"INCLINATION":42.9983,"RA_OF_ASC_NODE":137.2058,"ARG_OF_PERICENTER":271.2588,"MEAN_ANOMALY":88.8126,"EPHEMERIS_TYPE":0,"CLASSIFICATION_TYPE":"U","NORAD_CAT_ID":62128,"ELEMENT_SET_NO":999,"REV_AT_EPOCH":7246,"BSTAR":0.0014200614,"MEAN_MOTION_DOT":0.0003901,"MEAN_MOTION_DDOT":0},{"OBJECT_NAME":"THOR AGENA B DEB","OBJECT_ID":"1965-098F","EPOCH":"2026-03-09T22:45:15.729408","MEAN_MOTION":13.60223409,"ECCENTRICITY":0.07538154,"INCLINATION":79.8484,"RA_OF_ASC_NODE":20.4001,"ARG_OF_PERICENTER":143.1562,"MEAN_ANOMALY":222.3913,"EPHEMERIS_TYPE":0,"CLASSIFICATION_TYPE":"U","NORAD_CAT_ID":1948,"ELEMENT_SET_NO":999,"REV_AT_EPOCH":79567,"BSTAR":0.00090419941,"MEAN_MOTION_DOT":4.962e-5,"MEAN_MOTION_DDOT":0}]
